[{"OBJECT_NAME":"HAWK-2B","OBJECT_ID":"2021-006CZ","EPOCH":"2026-03-09T16:13:51.664224","MEAN_MOTION":15.33301353,"ECCENTRICITY":0.00071021,"INCLINATION":97.2334,"RA_OF_ASC_NODE":114.114,"ARG_OF_PERICENTER":185.9063,"MEAN_ANOMALY":174.2098,"EPHEMERIS_TYPE":0,"CLASSIFICATION_TYPE":"U","NORAD_CAT_ID":47508,"ELEMENT_SET_NO":999,"REV_AT_EPOCH":28424,"BSTAR":0.00029650607,"MEAN_MOTION_DOT":9.474e-5,"MEAN_MOTION_DDOT":0},{"OBJECT_NAME":"STARLINK-33785","OBJECT_ID":"2025-071Z","EPOCH":"2026-03-09T11:26:15.011232","MEAN_MOTION":15.30190164,"ECCENTRICITY":0.00011574,"INCLINATION":53.1578,"RA_OF_ASC_NODE":141.1297,"ARG_OF_PERICENTER":97.0782,"MEAN_ANOMALY":263.0351,"EPHEMERIS_TYPE":0,"CLASSIFICATION_TYPE":"U","NORAD_CAT_ID":63516,"ELEMENT_SET_NO":999,"REV_AT_EPOCH":5271,"BSTAR":0.00048480911,"MEAN_MOTION_DOT":0.00014022,"MEAN_MOTION_DDOT":0}]
